{
"type": "FeatureCollection",
"name": "Kemampuan_Lahan",
"crs": { "type": "name", "properties": { "name": "urn:ogc:def:crs:OGC:1.3:CRS84" } },
"features": [
{ "type": "Feature", "properties": { "Id": 1, "Kelas": 7, "Luas": 0.1037286368, "Rekomend": "Hutan/vegetasi permanen dan konservasi" }, "geometry": { "type": "MultiPolygon", "coordinates": [ [ [ [ 108.714120790000081, -7.440906536999954 ], [ 108.714090750762551, -7.440877548737037 ], [ 108.714115793666906, -7.440831412876916 ], [ 108.714169693804976, -7.44077667305685 ], [ 108.71421478105556, -7.440730390527437 ], [ 108.714224097596457, -7.440721435661664 ], [ 108.714259062289997, -7.440694607256554 ], [ 108.714276898427315, -7.440685446264067 ], [ 108.71434905864642, -7.440684818236759 ], [ 108.714366545825953, -7.440694661637973 ], [ 108.714384996310685, -7.440712012455418 ], [ 108.714393923748901, -7.44072981430461 ], [ 108.714403756218559, -7.440766376940255 ], [ 108.714404514834172, -7.440910177752662 ], [ 108.71439626579739, -7.440954899792803 ], [ 108.714387402413962, -7.440973110017352 ], [ 108.714378537734618, -7.440991570316371 ], [ 108.714369226368603, -7.440999524885008 ], [ 108.71436035909764, -7.441018485333016 ], [ 108.714351792871071, -7.441027694153282 ], [ 108.71433371006502, -7.441036103627683 ], [ 108.714324890708923, -7.441045811304209 ], [ 108.714306806606785, -7.441054470851992 ], [ 108.714293464856524, -7.441061789686451 ], [ 108.714079560000087, -7.440944906999951 ], [ 108.714120790000081, -7.440906536999954 ] ] ] ] } },
{ "type": "Feature", "properties": { "Id": 2, "Kelas": 7, "Luas": 0.21039104423, "Rekomend": "Hutan/vegetasi permanen dan konservasi" }, "geometry": { "type": "MultiPolygon", "coordinates": [ [ [ [ 108.714488703000086, -7.439776562999941 ], [ 108.714740372000065, -7.439744390999956 ], [ 108.714840775039065, -7.440122150339564 ], [ 108.714821967518233, -7.440131176312661 ], [ 108.714741374378931, -7.440150126942232 ], [ 108.714569794296111, -7.440151482628989 ], [ 108.714524461589193, -7.440142605962934 ], [ 108.714488588373456, -7.440133938142488 ], [ 108.714461050579786, -7.440125793475553 ], [ 108.714442820217542, -7.440116256351319 ], [ 108.714425067574439, -7.440107361899747 ], [ 108.714407154587903, -7.440098466620515 ], [ 108.714389082086655, -7.440089410465705 ], [ 108.714370845927121, -7.440080993674875 ], [ 108.714352932114522, -7.440072258442035 ], [ 108.714343199177463, -7.440062925203876 ], [ 108.71432592259994, -7.440054993518678 ], [ 108.714298117167459, -7.440036604122852 ], [ 108.714271065000318, -7.440009740455404 ], [ 108.714253083231284, -7.440001000259857 ], [ 108.714234416600419, -7.439982818061044 ], [ 108.714216069002092, -7.439964957612149 ], [ 108.714218232000079, -7.439963653999944 ], [ 108.71422166800005, -7.439959221999964 ], [ 108.714327671000049, -7.439881396999954 ], [ 108.714330664000059, -7.439878183999938 ], [ 108.714407957330707, -7.439828721590849 ], [ 108.714488703000086, -7.439776562999941 ] ] ] ] } },
{ "type": "Feature", "properties": { "Id": 3, "Kelas": 5, "Luas": 0.14209578781000001, "Rekomend": "Pertanian terbatas dengan konservasi intensif" }, "geometry": { "type": "MultiPolygon", "coordinates": [ [ [ [ 108.715287878000098, -7.440844688999939 ], [ 108.715189569000074, -7.440936210999951 ], [ 108.715127798000083, -7.44098392199993 ], [ 108.715102712000089, -7.441004133999948 ], [ 108.715036761000079, -7.441053358999961 ], [ 108.714985549000062, -7.441079785999923 ], [ 108.714955843617474, -7.441094261047135 ], [ 108.714946892891746, -7.441057722963015 ], [ 108.714936490993381, -7.441012604008668 ], [ 108.714935176063534, -7.44071535076013 ], [ 108.714943428920805, -7.440669878466609 ], [ 108.714952381604746, -7.440634413048243 ], [ 108.714979222197826, -7.440579783603313 ], [ 108.714988081663734, -7.440562323581743 ], [ 108.715005760460798, -7.440535155862066 ], [ 108.715014708517018, -7.440526059027297 ], [ 108.715023676801366, -7.44051832034004 ], [ 108.715197269492919, -7.440732568146772 ], [ 108.715287878000098, -7.440844688999939 ] ] ] ] } },
{ "type": "Feature", "properties": { "Id": 4, "Kelas": 6, "Luas": 1.24529739606, "Rekomend": "Tidak untuk tanaman semusim; cocok untuk pastura/perkebunan tertentu" }, "geometry": { "type": "MultiPolygon", "coordinates": [ [ [ [ 108.713203968000087, -7.440168978999958 ], [ 108.713136184000064, -7.440133997999961 ], [ 108.713285789000054, -7.439940343999974 ], [ 108.713663993000083, -7.440314134999911 ], [ 108.713677690000054, -7.440330411999945 ], [ 108.713807591000034, -7.440239875999927 ], [ 108.714163777000081, -7.440670557 ], [ 108.714225822000088, -7.440623980999941 ], [ 108.713892347000083, -7.440188680999921 ], [ 108.714048192000064, -7.44007313899993 ], [ 108.714135322000061, -7.440020520999926 ], [ 108.714216069002092, -7.439964957612149 ], [ 108.714253083231284, -7.440001000259857 ], [ 108.714271065000318, -7.440009740455404 ], [ 108.714298117167459, -7.440036604122852 ], [ 108.71432592259994, -7.44005499351866 ], [ 108.714343199177463, -7.440062925203876 ], [ 108.714352932114522, -7.440072258441999 ], [ 108.714461050579786, -7.440125793475536 ], [ 108.714569794296111, -7.440151482628989 ], [ 108.714741374378931, -7.440150126942216 ], [ 108.714821967518233, -7.440131176312661 ], [ 108.714840775039079, -7.440122150339564 ], [ 108.714907373000088, -7.440373170999979 ], [ 108.715023676801366, -7.44051832034004 ], [ 108.715005760460798, -7.440535155862049 ], [ 108.714988081663734, -7.440562323581726 ], [ 108.714952381604746, -7.440634413048227 ], [ 108.714935176063534, -7.440715350760114 ], [ 108.714936490993395, -7.441012604008635 ], [ 108.714955843617489, -7.441094261047115 ], [ 108.714937658000068, -7.441103148999936 ], [ 108.714850916000046, -7.441161193999947 ], [ 108.714776520000044, -7.44120800599993 ], [ 108.714687569000048, -7.441276935999923 ], [ 108.714293464856539, -7.441061789686451 ], [ 108.714324890708923, -7.441045811304194 ], [ 108.714333710065048, -7.441036103627665 ], [ 108.714351792871071, -7.441027694153266 ], [ 108.714360359097668, -7.441018485332998 ], [ 108.714369226368632, -7.440999524884989 ], [ 108.714378537734618, -7.440991570316355 ], [ 108.71439626579739, -7.440954899792803 ], [ 108.714404514834172, -7.440910177752662 ], [ 108.714403756218587, -7.440766376940236 ], [ 108.714393923748901, -7.440729814304592 ], [ 108.714384996310699, -7.440712012455401 ], [ 108.714366545825968, -7.440694661637973 ], [ 108.714349058646434, -7.440684818236759 ], [ 108.714276898427315, -7.440685446264067 ], [ 108.714259062289997, -7.440694607256554 ], [ 108.714224097596457, -7.440721435661664 ], [ 108.714115793666906, -7.440831412876916 ], [ 108.71409075076258, -7.440877548737037 ], [ 108.713588883000071, -7.440391194999926 ], [ 108.713576591000077, -7.440370797999927 ], [ 108.713262336000085, -7.440085082999889 ], [ 108.713203968000087, -7.440168978999958 ] ] ] ] } }
]
}
