{
"type": "FeatureCollection",
"name": "kesuburan_tanah",
"crs": { "type": "name", "properties": { "name": "urn:ogc:def:crs:OGC:1.3:CRS84" } },
"features": [
{ "type": "Feature", "properties": { "Id": 1, "KelasSubur": "Tingkat Kesuburan Tanah Sedang", "Luas": 0.22472970979000001 }, "geometry": { "type": "MultiPolygon", "coordinates": [ [ [ [ 108.71422166800005, -7.439959221999946 ], [ 108.714330664000059, -7.439878183999938 ], [ 108.714488703000086, -7.439776562999959 ], [ 108.71474037200008, -7.439744391 ], [ 108.714831974243907, -7.440088683003093 ], [ 108.714857960303291, -7.440186695972399 ], [ 108.714831797384974, -7.44018930850833 ], [ 108.714686248592898, -7.440190618377741 ], [ 108.714651517915755, -7.440186661446895 ], [ 108.714587928729927, -7.440174313215942 ], [ 108.714520255263494, -7.440153358038103 ], [ 108.714456740775077, -7.440126585915136 ], [ 108.714373709031719, -7.440081511057465 ], [ 108.714316455249531, -7.44004172069693 ], [ 108.714265055859116, -7.440000930230507 ], [ 108.71422166800005, -7.439959221999946 ] ] ] ] } },
{ "type": "Feature", "properties": { "Id": 2, "KelasSubur": "Tingkat Kesuburan Tanah Rendah", "Luas": 1.47690393023 }, "geometry": { "type": "MultiPolygon", "coordinates": [ [ [ [ 108.713136184000064, -7.440133997999961 ], [ 108.713285789000054, -7.439940343999974 ], [ 108.713663993000083, -7.440314134999928 ], [ 108.713677690000054, -7.440330411999962 ], [ 108.713807591000034, -7.440239875999927 ], [ 108.714163777000081, -7.440670556999942 ], [ 108.714225822000088, -7.440623980999924 ], [ 108.713892347000083, -7.440188680999921 ], [ 108.714048192000064, -7.440073138999963 ], [ 108.714131746000092, -7.44002127699998 ], [ 108.714135322000061, -7.440020520999926 ], [ 108.714218232000079, -7.439963653999927 ], [ 108.71422166800005, -7.439959221999964 ], [ 108.714265055859144, -7.440000930230507 ], [ 108.714316455249531, -7.44004172069693 ], [ 108.714373709031719, -7.440081511057447 ], [ 108.714456740775077, -7.440126585915136 ], [ 108.714520255263494, -7.44015335803812 ], [ 108.714587928729927, -7.440174313215942 ], [ 108.714651517915755, -7.440186661446895 ], [ 108.714686248592912, -7.440190618377741 ], [ 108.714831797384974, -7.44018930850833 ], [ 108.714857960303306, -7.440186695972416 ], [ 108.714907373000088, -7.440373170999979 ], [ 108.715287878000098, -7.44084468899992 ], [ 108.715189569000074, -7.4409362109999 ], [ 108.715102712000089, -7.441004133999948 ], [ 108.715036761000079, -7.441053358999942 ], [ 108.714937658000068, -7.441103148999956 ], [ 108.714850916000046, -7.441161193999961 ], [ 108.714776520000044, -7.44120800599993 ], [ 108.714687569000048, -7.441276935999939 ], [ 108.714079560000087, -7.440944906999935 ], [ 108.714120790000081, -7.440906536999903 ], [ 108.713588883000071, -7.440391194999962 ], [ 108.713576591000077, -7.440370797999927 ], [ 108.713262336000057, -7.440085082999942 ], [ 108.713203968000087, -7.440168978999958 ], [ 108.713136184000064, -7.440133997999961 ] ] ] ] } }
]
}
