{
"type": "FeatureCollection",
"name": "titik_pengamatan",
"crs": { "type": "name", "properties": { "name": "urn:ogc:def:crs:OGC:1.3:CRS84" } },
"features": [
{ "type": "Feature", "properties": { "Point_ID": "T1", "Coordinate": "S 07*26.450' E108*42.858'", "Coordina_1": 108.7143, "Coordina_2": -7.4408333333299996, "Latitude": -7.4408333333299996, "Longitude": 108.7143, "Ketinggian": 17.0, "Bentuk_Lah": "Bergelombang", "Penggunaan": "Ladang", "Lereng": 1.0, "Kedalaman_": 6.0, "Tekstur": 5.0, "Drainase": 5.0, "Permeabili": 3.0, "Erosi": 2.0, "Banjir_Gen": 3.0, "MAT": 4.0, "Total_Skor": 36.0, "Skor_Maksi": 7.0, "Kelas_Akhi": "VII", "Subkelas_I": "s", "Faktor_Pem": "Batuan Permukaan", "Faktor_P_1": "Tanah Dangkal/Batuan Permukaan", "Rekomendas": "Hutan/vegetasi permanen dan konservasi", "Final_Skor": 7, "Points": "T1 - Kelas 7", "Name": "Sampel 1", "N_total": 0.03, "P_Tersedia": 6.57, "K_dd": 0.23, "pH": 6.22, "C_Organik": 0.78, "Kesuburan": "Rendah", "Skor_Subur": 1 }, "geometry": { "type": "Point", "coordinates": [ 108.7143, -7.440833332999936 ] } },
{ "type": "Feature", "properties": { "Point_ID": "T2", "Coordinate": "S 07*26.387' E108*42.885'", "Coordina_1": 108.71475, "Coordina_2": -7.4397833333300003, "Latitude": -7.4397833333300003, "Longitude": 108.71475, "Ketinggian": 31.0, "Bentuk_Lah": "Perbukitan", "Penggunaan": "Hutan", "Lereng": 7.0, "Kedalaman_": 1.0, "Tekstur": 3.0, "Drainase": 1.0, "Permeabili": 3.0, "Erosi": 2.0, "Banjir_Gen": 1.0, "MAT": 4.0, "Total_Skor": 23.0, "Skor_Maksi": 7.0, "Kelas_Akhi": "VII", "Subkelas_I": "e", "Faktor_Pem": "Kemiringan Lereng (%)", "Faktor_P_1": "Lereng Curam", "Rekomendas": "Hutan/vegetasi permanen dan konservasi", "Final_Skor": 7, "Points": "T2 - Kelas 7", "Name": "Sampel 2", "N_total": 0.09, "P_Tersedia": 13.13, "K_dd": 0.19, "pH": 6.61, "C_Organik": 3.28, "Kesuburan": "Sedang", "Skor_Subur": 2 }, "geometry": { "type": "Point", "coordinates": [ 108.714704424860116, -7.439792529582767 ] } },
{ "type": "Feature", "properties": { "Point_ID": "T3", "Coordinate": "S 07*26.449' E108*42.914'", "Coordina_1": 108.715233333, "Coordina_2": -7.44081666667, "Latitude": -7.44081666667, "Longitude": 108.715233333, "Ketinggian": 31.0, "Bentuk_Lah": "Bergelombang", "Penggunaan": "Ladang", "Lereng": 1.0, "Kedalaman_": 3.0, "Tekstur": 5.0, "Drainase": 1.0, "Permeabili": 3.0, "Erosi": 1.0, "Banjir_Gen": 1.0, "MAT": 4.0, "Total_Skor": 22.0, "Skor_Maksi": 5.0, "Kelas_Akhi": "V", "Subkelas_I": "w", "Faktor_Pem": "Tekstur Tanah", "Faktor_P_1": "Tekstur tidak sesuai", "Rekomendas": "Pertanian terbatas dengan konservasi intensif", "Final_Skor": 5, "Points": "T3 - Kelas 5", "Name": "Sampel 3", "N_total": 0.07, "P_Tersedia": 12.5, "K_dd": 0.2, "pH": 6.69, "C_Organik": 1.52, "Kesuburan": "Rendah", "Skor_Subur": 1 }, "geometry": { "type": "Point", "coordinates": [ 108.715233333000086, -7.440816666999979 ] } },
{ "type": "Feature", "properties": { "Point_ID": "T4", "Coordinate": "S 07*26.449' E108*42.885'", "Coordina_1": 108.71475, "Coordina_2": -7.44081666667, "Latitude": -7.44081666667, "Longitude": 108.71475, "Ketinggian": 33.0, "Bentuk_Lah": "Bergelombang", "Penggunaan": "Ladang", "Lereng": 1.0, "Kedalaman_": 6.0, "Tekstur": 5.0, "Drainase": 3.0, "Permeabili": 3.0, "Erosi": 2.0, "Banjir_Gen": 1.0, "MAT": 4.0, "Total_Skor": 28.0, "Skor_Maksi": 6.0, "Kelas_Akhi": "VI", "Subkelas_I": "s", "Faktor_Pem": "Kedalaman Tanah", "Faktor_P_1": "Tanah Dangkal", "Rekomendas": "Tidak untuk tanaman semusim; cocok untuk pastura/perkebunan tertentu", "Final_Skor": 6, "Points": "T4 - Kelas 6", "Name": "Sampel 4", "N_total": 0.03, "P_Tersedia": 13.21, "K_dd": 0.24, "pH": 6.33, "C_Organik": 0.75, "Kesuburan": "Rendah", "Skor_Subur": 1 }, "geometry": { "type": "Point", "coordinates": [ 108.71475, -7.44081666699998 ] } },
{ "type": "Feature", "properties": { "Point_ID": "T5", "Coordinate": "S 07*26.450' E108*42.870'", "Coordina_1": 108.7145, "Coordina_2": -7.4408333333299996, "Latitude": -7.4408333333299996, "Longitude": 108.7145, "Ketinggian": 35.0, "Bentuk_Lah": "Bergelombang", "Penggunaan": "Ladang", "Lereng": 1.0, "Kedalaman_": 6.0, "Tekstur": 5.0, "Drainase": 3.0, "Permeabili": 3.0, "Erosi": 2.0, "Banjir_Gen": 1.0, "MAT": 4.0, "Total_Skor": 30.0, "Skor_Maksi": 6.0, "Kelas_Akhi": "VI", "Subkelas_I": "s", "Faktor_Pem": "Kedalaman Tanah", "Faktor_P_1": "Tanah Dangkal, Tekstur tidak sesuai, batuan permukaan", "Rekomendas": "Tidak untuk tanaman semusim; cocok untuk pastura/perkebunan tertentu", "Final_Skor": 6, "Points": "T5 - Kelas 6", "Name": "Sampel 5", "N_total": 0.01, "P_Tersedia": 10.76, "K_dd": 0.18, "pH": 6.57, "C_Organik": 0.58, "Kesuburan": "Rendah", "Skor_Subur": 1 }, "geometry": { "type": "Point", "coordinates": [ 108.7145, -7.440833332999945 ] } },
{ "type": "Feature", "properties": { "Point_ID": "T6", "Coordinate": "S 07*26.438' E108*42.849'", "Coordina_1": 108.71415, "Coordina_2": -7.4406333333300001, "Latitude": -7.4406333333300001, "Longitude": 108.71415, "Ketinggian": 32.0, "Bentuk_Lah": "Bergelombang", "Penggunaan": "Ladang", "Lereng": 1.0, "Kedalaman_": 6.0, "Tekstur": 5.0, "Drainase": 3.0, "Permeabili": 3.0, "Erosi": 2.0, "Banjir_Gen": 1.0, "MAT": 4.0, "Total_Skor": 30.0, "Skor_Maksi": 6.0, "Kelas_Akhi": "VI", "Subkelas_I": "s", "Faktor_Pem": "Kedalaman Tanah", "Faktor_P_1": "Tanah Dangkal, Tekstur tidak sesuai, batuan permukaan", "Rekomendas": "Tidak untuk tanaman semusim; cocok untuk pastura/perkebunan tertentu", "Final_Skor": 6, "Points": "T6 - Kelas 6", "Name": "Sampel 6", "N_total": 0.03, "P_Tersedia": 6.66, "K_dd": 0.45, "pH": 6.87, "C_Organik": 0.91, "Kesuburan": "Rendah", "Skor_Subur": 1 }, "geometry": { "type": "Point", "coordinates": [ 108.714127280897145, -7.440650135577237 ] } }
]
}
